ONEWEB-0650             
1 55813U 23029T   23263.67514390  .00000025  00000+0  30573-4 0  9997
2 55813  87.9251 144.0894 0002254  72.0848 288.0530 13.19725372 26934
ONEWEB-0652             
1 55814U 23029U   23263.91667824  .00013371  00000+0  35964-1 0  9990
2 55814  87.8998 128.8207 0001949  85.0078 331.3669 13.14529535  5276
ONEWEB-0653             
1 55815U 23029V   23264.25001157 -.00043661  00000+0 -11835+0 0  9996
2 55815  87.9018 128.6794 0004206  76.0040 176.2752 13.14507528 28719
ONEWEB-0654             
1 55816U 23029W   23263.91667824  .00011566  00000+0  31218-1 0  9994
2 55816  87.8990 128.8122 0002059  94.0765  53.4198 13.14295647  5343
ONEWEB-0656             
1 55817U 23029X   23263.91667824 -.01007504  00000+0 -71502+0 0  9993
2 55817  87.2114 115.7662 0003431  74.9545 302.4238 14.00973648  5597
ONEWEB-0657             
1 55818U 23029Y   23263.74619688 -.00000032  00000+0 -11215-3 0  9997
2 55818  87.9257 144.0792 0001554  41.6384 318.4867 13.19730845 26955
ONEWEB-0658             
1 55819U 23029Z   23263.74147106  .00000071  00000+0  14405-3 0  9994
2 55819  87.9239 144.0291 0002502  74.2106 285.9303 13.19722636 26961
ONEWEB-0660             
1 55820U 23029AA  23263.91667824 -.00011543  00000+0 -31181-1 0  9995
2 55820  87.9010 128.7793 0003338  86.2028 180.3429 13.14562480  5362
